[{"OBJECT_NAME":"239ALFEROV (RS61S)","OBJECT_ID":"2025-155F","EPOCH":"2026-03-09T21:46:33.382848","MEAN_MOTION":15.29933217,"ECCENTRICITY":0.00084878,"INCLINATION":97.4469,"RA_OF_ASC_NODE":37.6373,"ARG_OF_PERICENTER":151.5904,"MEAN_ANOMALY":208.58,"EPHEMERIS_TYPE":0,"CLASSIFICATION_TYPE":"U","NORAD_CAT_ID":64881,"ELEMENT_SET_NO":999,"REV_AT_EPOCH":6561,"BSTAR":0.00067233359,"MEAN_MOTION_DOT":0.00019457,"MEAN_MOTION_DDOT":0},{"OBJECT_NAME":"STARLINK-35845","OBJECT_ID":"2025-254U","EPOCH":"2026-03-09T10:03:14.719104","MEAN_MOTION":15.30210065,"ECCENTRICITY":0.00015395,"INCLINATION":53.1574,"RA_OF_ASC_NODE":233.748,"ARG_OF_PERICENTER":86.413,"MEAN_ANOMALY":273.7047,"EPHEMERIS_TYPE":0,"CLASSIFICATION_TYPE":"U","NORAD_CAT_ID":66366,"ELEMENT_SET_NO":999,"REV_AT_EPOCH":1893,"BSTAR":0.00082833184,"MEAN_MOTION_DOT":0.00024261,"MEAN_MOTION_DDOT":0}]
